{"type":"FeatureCollection", "features": [
{"type":"Feature","geometry":{"type":"Point","coordinates":[-16.699309,32.744779,0]},"properties":{"name":"Ponta de São Lourenço: Ueda establishing shot 1x01","description":"Caniçal","styleUrl":"#icon-1727-673AB7","icon-opacity":1,"icon-color":"#673ab7","icon-scale":1,"icon":"ring","label-text":"Ponta de São Lourenço: Ueda establishing shot 1x01","font-family":"Bahnschrift","icon-size":23,"fill":"#02010c","font-size":"10","label-pos":"e","dx":"0.45em","dy":"0.23em","text-anchor":"start"}},
{"type":"Feature","geometry":{"type":"Point","coordinates":[-16.741666,32.752181,0]},"properties":{"name":"Calhau da Furna do Bode: Olega establishing shots 1x02","description":"Caniçal","styleUrl":"#icon-1727-673AB7","icon-opacity":1,"icon-color":"#673ab7","icon-scale":1,"icon":"ring","label-text":"Calhau da Furna do Bode: Olega establishing shots 1x02","font-family":"Bahnschrift","icon-size":23,"fill":"#02010c","font-size":"10","label-pos":"e","dx":"0.45em","dy":"0.23em","text-anchor":"start"}},
{"type":"Feature","geometry":{"type":"Point","coordinates":[-16.972892,32.790526,0]},"properties":{"name":"Poço das Casas: Khofar: Eclipse II landing site & trail 1x04","description":"Nearest towns: Falca, Boaventura","styleUrl":"#icon-1727-673AB7","icon-opacity":1,"icon-color":"#673ab7","icon-scale":1,"icon":"ring","label-text":"Poço das Casas: Khofar: Eclipse II landing site & trail 1x04","font-family":"Bahnschrift","icon-size":23,"fill":"#02010c","font-size":"10","label-pos":"e","dx":"0.45em","dy":"0.23em","text-anchor":"start"}},
{"type":"Feature","geometry":{"type":"Point","coordinates":[-16.928673,32.735717,0]},"properties":{"name":"Pico do Areeiro: Khofar: establishing shots 1x04, 1x06","description":"Pico do Areeiro","styleUrl":"#icon-1727-673AB7","icon-opacity":1,"icon-color":"#673ab7","icon-scale":1,"icon":"ring","label-text":"Pico do Areeiro: Khofar: establishing shots 1x04, 1x06","font-family":"Bahnschrift","icon-size":23,"fill":"#02010c","font-size":"10","label-pos":"e","dx":"0.45em","dy":"0.23em","text-anchor":"start"}},
{"type":"Feature","geometry":{"type":"Point","coordinates":[-17.018118,32.75387,0]},"properties":{"name":"Encumeada: Khofar: Eclipse II flyby 1x04","description":"near intersection of ER105 and ER228","styleUrl":"#icon-1727-673AB7","icon-opacity":1,"icon-color":"#673ab7","icon-scale":1,"icon":"ring","label-text":"Encumeada: Khofar: Eclipse II flyby 1x04","font-family":"Bahnschrift","icon-size":23,"fill":"#02010c","font-size":"10","label-pos":"e","dx":"0.45em","dy":"0.23em","text-anchor":"start"}},
{"type":"Feature","geometry":{"type":"Point","coordinates":[-17.141189,32.809491,0]},"properties":{"name":"Fanal: Khofar: Jedi landing site and trail 1x04, 1x05","description":"Parque Florestal do Fanal","styleUrl":"#icon-1727-673AB7","icon-opacity":1,"icon-color":"#673ab7","icon-scale":1,"icon":"ring","label-text":"Fanal: Khofar: Jedi landing site and trail 1x04, 1x05","font-family":"Bahnschrift","icon-size":23,"fill":"#02010c","font-size":"10","label-pos":"e","dx":"0.45em","dy":"0.23em","text-anchor":"start"}},
{"type":"Feature","geometry":{"type":"Point","coordinates":[-17.166268,32.868208,0]},"properties":{"name":"Porto Moniz (Piscinas Naturais): Unknown Planet:  Stranger's swimming pool 1x06","description":"Porto Moniz Piscinas Naturais","styleUrl":"#icon-1727-673AB7","icon-opacity":1,"icon-color":"#673ab7","icon-scale":1,"icon":"ring","label-text":"Porto Moniz (Piscinas Naturais): Unknown Planet:  Stranger's swimming pool 1x06","font-family":"Bahnschrift","icon-size":23,"fill":"#02010c","font-size":"10","label-pos":"e","dx":"0.45em","dy":"0.23em","text-anchor":"start"}},
{"type":"Feature","geometry":{"type":"Point","coordinates":[-17.152988,32.855415,0]},"properties":{"name":"Ribeira da Janela: Unknown Planet:  beach and cave - 1x01, 1x06, 1x08","description":"Ribeira da Janela","styleUrl":"#icon-1727-673AB7","icon-opacity":1,"icon-color":"#673ab7","icon-scale":1,"icon":"ring","label-text":"Ribeira da Janela: Unknown Planet:  beach and cave - 1x01, 1x06, 1x08","font-family":"Bahnschrift","icon-size":23,"fill":"#02010c","font-size":"10","label-pos":"e","dx":"0.45em","dy":"0.23em","text-anchor":"start"}},
{"type":"Feature","geometry":{"type":"Point","coordinates":[-17.106323,32.825578,0]},"properties":{"name":"Seixal: Unknown Planet: Meeting the Stranger 1x01, Landing Pad 1x08)","description":"Seixal","styleUrl":"#icon-1727-673AB7","icon-opacity":1,"icon-color":"#673ab7","icon-scale":1,"icon":"ring","label-text":"Seixal: Unknown Planet: Meeting the Stranger 1x01, Landing Pad 1x08)","font-family":"Calibri","icon-size":23,"fill":"#02010c","font-size":"10","label-pos":"e","dx":"0.45em","dy":"0.23em","text-anchor":"start"}}
]}